IRIDIUM 116             
1 43072U 17083C   24064.92304597  .00000122  00000+0  36441-4 0  9996
2 43072  86.3968 310.6878 0002236  82.7476 277.3974 14.34218224324591
IRIDIUM 130             
1 43073U 17083D   24064.96109799  .00000296  00000+0  98727-4 0  9995
2 43073  86.3978 310.8663 0002044  91.1029 269.0401 14.34218320324547
IRIDIUM 151             
1 43074U 17083E   24064.72642418  .00000154  00000+0  47994-4 0  9993
2 43074  86.3970 310.8088 0001986  75.6963 284.4453 14.34217522324539
IRIDIUM 134             
1 43075U 17083F   24064.97378672  .00000328  00000+0  11021-3 0  9993
2 43075  86.3973 310.7023 0002199  90.5066 269.6382 14.34219117324536
IRIDIUM 137             
1 43076U 17083G   24064.91670369  .00000169  00000+0  53143-4 0  9991
2 43076  86.3977 310.8021 0002308  75.9946 284.1506 14.34218715324595
IRIDIUM 141             
1 43077U 17083H   24064.91034793  .00000299  00000+0  99684-4 0  9991
2 43077  86.3972 310.6824 0002047  87.5029 272.6401 14.34215373324594
IRIDIUM 153             
1 43078U 17083J   24064.86253269  .00000215  00000+0  69639-4 0  9992
2 43078  86.3922 279.1387 0001601  88.1660 271.9719 14.34218138325694
IRIDIUM 131             
1 43079U 17083K   24064.96744371  .00000221  00000+0  71915-4 0  9990
2 43079  86.3974 310.7892 0002178  82.9024 277.2419 14.34218158324531
